1 43013U 17073A   26077.92097561  .00000063  00000+0  50829-4 0  9996
2 43013  98.7703  18.2169 0001578 125.5374 234.5949 14.19538447431664
